CCSDS_OMM_VERS = 2.0
CREATION_DATE  = 
ORIGINATOR     = 

OBJECT_NAME    = DELTA 2 R/B(1)
OBJECT_ID      = 1990-008B
CENTER_NAME    = EARTH
REF_FRAME      = TEME
TIME_SYSTEM    = UTC
MEAN_ELEMENT_THEORY = SGP/SGP4

EPOCH          = 2026-01-22T12:44:23.634240
MEAN_MOTION    = 15.49562385
ECCENTRICITY   = .0100743
INCLINATION    = 35.6056
RA_OF_ASC_NODE = 116.3177
ARG_OF_PERICENTER = 191.4690
MEAN_ANOMALY   = 168.3744

EPHEMERIS_TYPE = 0
CLASSIFICATION_TYPE = U
NORAD_CAT_ID   = 20453
ELEMENT_SET_NO = 999
REV_AT_EPOCH   = 91895
BSTAR          = .94577E-3
MEAN_MOTION_DOT = .66916E-3
MEAN_MOTION_DDOT = 0

CCSDS_OMM_VERS = 2.0
CREATION_DATE  = 
ORIGINATOR     = 

OBJECT_NAME    = COSMOS 2058
OBJECT_ID      = 1990-010A
CENTER_NAME    = EARTH
REF_FRAME      = TEME
TIME_SYSTEM    = UTC
MEAN_ELEMENT_THEORY = SGP/SGP4

EPOCH          = 2026-01-22T05:29:31.890912
MEAN_MOTION    = 15.10885520
ECCENTRICITY   = .0011182
INCLINATION    = 82.4660
RA_OF_ASC_NODE = 93.1968
ARG_OF_PERICENTER = 128.3358
MEAN_ANOMALY   = 231.8878

EPHEMERIS_TYPE = 0
CLASSIFICATION_TYPE = U
NORAD_CAT_ID   = 20465
ELEMENT_SET_NO = 999
REV_AT_EPOCH   = 93522
BSTAR          = .32475E-3
MEAN_MOTION_DOT = .544E-4
MEAN_MOTION_DDOT = 0

CCSDS_OMM_VERS = 2.0
CREATION_DATE  = 
ORIGINATOR     = 

OBJECT_NAME    = SL-14 R/B
OBJECT_ID      = 1990-010B
CENTER_NAME    = EARTH
REF_FRAME      = TEME
TIME_SYSTEM    = UTC
MEAN_ELEMENT_THEORY = SGP/SGP4

EPOCH          = 2026-01-22T06:47:31.237152
MEAN_MOTION    = 14.83519343
ECCENTRICITY   = .0021413
INCLINATION    = 82.5046
RA_OF_ASC_NODE = 310.9739
ARG_OF_PERICENTER = 92.4752
MEAN_ANOMALY   = 267.8915

EPHEMERIS_TYPE = 0
CLASSIFICATION_TYPE = U
NORAD_CAT_ID   = 20466
ELEMENT_SET_NO = 999
REV_AT_EPOCH   = 92160
BSTAR          = .10658E-3
MEAN_MOTION_DOT = .904E-5
MEAN_MOTION_DDOT = 0

CCSDS_OMM_VERS = 2.0
CREATION_DATE  = 
ORIGINATOR     = 

OBJECT_NAME    = SL-14 R/B
OBJECT_ID      = 1990-018B
CENTER_NAME    = EARTH
REF_FRAME      = TEME
TIME_SYSTEM    = UTC
MEAN_ELEMENT_THEORY = SGP/SGP4

EPOCH          = 2026-01-22T09:23:07.299744
MEAN_MOTION    = 14.82094965
ECCENTRICITY   = .0015028
INCLINATION    = 82.5204
RA_OF_ASC_NODE = 266.3732
ARG_OF_PERICENTER = 242.3750
MEAN_ANOMALY   = 117.5939

EPHEMERIS_TYPE = 0
CLASSIFICATION_TYPE = U
NORAD_CAT_ID   = 20511
ELEMENT_SET_NO = 999
REV_AT_EPOCH   = 91572
BSTAR          = .93143E-4
MEAN_MOTION_DOT = .765E-5
MEAN_MOTION_DDOT = 0

CCSDS_OMM_VERS = 2.0
CREATION_DATE  = 
ORIGINATOR     = 

OBJECT_NAME    = HST
OBJECT_ID      = 1990-037B
CENTER_NAME    = EARTH
REF_FRAME      = TEME
TIME_SYSTEM    = UTC
MEAN_ELEMENT_THEORY = SGP/SGP4

EPOCH          = 2026-01-22T05:05:16.489824
MEAN_MOTION    = 15.28679599
ECCENTRICITY   = .0001648
INCLINATION    = 28.4682
RA_OF_ASC_NODE = 356.8795
ARG_OF_PERICENTER = 319.5889
MEAN_ANOMALY   = 40.4584

EPHEMERIS_TYPE = 0
CLASSIFICATION_TYPE = U
NORAD_CAT_ID   = 20580
ELEMENT_SET_NO = 999
REV_AT_EPOCH   = 76619
BSTAR          = .34472E-3
MEAN_MOTION_DOT = .10127E-3
MEAN_MOTION_DDOT = 0

CCSDS_OMM_VERS = 2.0
CREATION_DATE  = 
ORIGINATOR     = 

OBJECT_NAME    = SL-16 R/B
OBJECT_ID      = 1990-046B
CENTER_NAME    = EARTH
REF_FRAME      = TEME
TIME_SYSTEM    = UTC
MEAN_ELEMENT_THEORY = SGP/SGP4

EPOCH          = 2026-01-22T11:09:08.535168
MEAN_MOTION    = 14.15007922
ECCENTRICITY   = .0013895
INCLINATION    = 70.9994
RA_OF_ASC_NODE = 34.9929
ARG_OF_PERICENTER = 4.1270
MEAN_ANOMALY   = 355.9965

EPHEMERIS_TYPE = 0
CLASSIFICATION_TYPE = U
NORAD_CAT_ID   = 20625
ELEMENT_SET_NO = 999
REV_AT_EPOCH   = 84185
BSTAR          = -.46199E-4
MEAN_MOTION_DOT = -.137E-5
MEAN_MOTION_DDOT = 0

CCSDS_OMM_VERS = 2.0
CREATION_DATE  = 
ORIGINATOR     = 

OBJECT_NAME    = COSMOS 2084
OBJECT_ID      = 1990-055A
CENTER_NAME    = EARTH
REF_FRAME      = TEME
TIME_SYSTEM    = UTC
MEAN_ELEMENT_THEORY = SGP/SGP4

EPOCH          = 2026-01-22T11:49:29.723232
MEAN_MOTION    = 15.05323300
ECCENTRICITY   = .0024723
INCLINATION    = 62.7908
RA_OF_ASC_NODE = 133.1037
ARG_OF_PERICENTER = 181.0341
MEAN_ANOMALY   = 179.0713

EPHEMERIS_TYPE = 0
CLASSIFICATION_TYPE = U
NORAD_CAT_ID   = 20663
ELEMENT_SET_NO = 999
REV_AT_EPOCH   = 92936
BSTAR          = .31778E-3
MEAN_MOTION_DOT = .4399E-4
MEAN_MOTION_DDOT = 0

CCSDS_OMM_VERS = 2.0
CREATION_DATE  = 
ORIGINATOR     = 

OBJECT_NAME    = SL-6 R/B(2)
OBJECT_ID      = 1990-055D
CENTER_NAME    = EARTH
REF_FRAME      = TEME
TIME_SYSTEM    = UTC
MEAN_ELEMENT_THEORY = SGP/SGP4

EPOCH          = 2026-01-22T11:30:31.815360
MEAN_MOTION    = 15.03313022
ECCENTRICITY   = .001807
INCLINATION    = 62.7836
RA_OF_ASC_NODE = 50.9636
ARG_OF_PERICENTER = 332.1988
MEAN_ANOMALY   = 27.8143

EPHEMERIS_TYPE = 0
CLASSIFICATION_TYPE = U
NORAD_CAT_ID   = 20666
ELEMENT_SET_NO = 999
REV_AT_EPOCH   = 93124
BSTAR          = .2988E-3
MEAN_MOTION_DOT = .389E-4
MEAN_MOTION_DDOT = 0

CCSDS_OMM_VERS = 2.0
CREATION_DATE  = 
ORIGINATOR     = 

OBJECT_NAME    = SL-8 R/B
OBJECT_ID      = 1990-078B
CENTER_NAME    = EARTH
REF_FRAME      = TEME
TIME_SYSTEM    = UTC
MEAN_ELEMENT_THEORY = SGP/SGP4

EPOCH          = 2026-01-22T06:01:13.637856
MEAN_MOTION    = 14.87405923
ECCENTRICITY   = .0368366
INCLINATION    = 82.9052
RA_OF_ASC_NODE = 293.0172
ARG_OF_PERICENTER = 169.5845
MEAN_ANOMALY   = 191.3288

EPHEMERIS_TYPE = 0
CLASSIFICATION_TYPE = U
NORAD_CAT_ID   = 20775
ELEMENT_SET_NO = 999
REV_AT_EPOCH   = 80239
BSTAR          = .60406E-3
MEAN_MOTION_DOT = .20122E-3
MEAN_MOTION_DDOT = 0

CCSDS_OMM_VERS = 2.0
CREATION_DATE  = 
ORIGINATOR     = 

OBJECT_NAME    = SL-8 R/B
OBJECT_ID      = 1991-006B
CENTER_NAME    = EARTH
REF_FRAME      = TEME
TIME_SYSTEM    = UTC
MEAN_ELEMENT_THEORY = SGP/SGP4

EPOCH          = 2026-01-22T11:50:43.176192
MEAN_MOTION    = 13.77491892
ECCENTRICITY   = .0022824
INCLINATION    = 82.9410
RA_OF_ASC_NODE = 204.3966
ARG_OF_PERICENTER = 161.7883
MEAN_ANOMALY   = 227.2933

EPHEMERIS_TYPE = 0
CLASSIFICATION_TYPE = U
NORAD_CAT_ID   = 21088
ELEMENT_SET_NO = 999
REV_AT_EPOCH   = 75771
BSTAR          = -.21423E-5
MEAN_MOTION_DOT = .13E-6
MEAN_MOTION_DDOT = 0

CCSDS_OMM_VERS = 2.0
CREATION_DATE  = 
ORIGINATOR     = 

OBJECT_NAME    = OKEAN-3
OBJECT_ID      = 1991-039A
CENTER_NAME    = EARTH
REF_FRAME      = TEME
TIME_SYSTEM    = UTC
MEAN_ELEMENT_THEORY = SGP/SGP4

EPOCH          = 2026-01-22T11:00:41.379264
MEAN_MOTION    = 15.04409382
ECCENTRICITY   = .001591
INCLINATION    = 82.5155
RA_OF_ASC_NODE = 21.6178
ARG_OF_PERICENTER = 122.9462
MEAN_ANOMALY   = 237.3297

EPHEMERIS_TYPE = 0
CLASSIFICATION_TYPE = U
NORAD_CAT_ID   = 21397
ELEMENT_SET_NO = 999
REV_AT_EPOCH   = 85808
BSTAR          = .33026E-3
MEAN_MOTION_DOT = .4651E-4
MEAN_MOTION_DDOT = 0

CCSDS_OMM_VERS = 2.0
CREATION_DATE  = 
ORIGINATOR     = 

OBJECT_NAME    = COSMOS 2151
OBJECT_ID      = 1991-042A
CENTER_NAME    = EARTH
REF_FRAME      = TEME
TIME_SYSTEM    = UTC
MEAN_ELEMENT_THEORY = SGP/SGP4

EPOCH          = 2026-01-22T10:54:43.373088
MEAN_MOTION    = 14.99896347
ECCENTRICITY   = .0011955
INCLINATION    = 82.4986
RA_OF_ASC_NODE = 128.2656
ARG_OF_PERICENTER = 209.8905
MEAN_ANOMALY   = 150.1637

EPHEMERIS_TYPE = 0
CLASSIFICATION_TYPE = U
NORAD_CAT_ID   = 21422
ELEMENT_SET_NO = 999
REV_AT_EPOCH   = 85626
BSTAR          = .27385E-3
MEAN_MOTION_DOT = .3426E-4
MEAN_MOTION_DDOT = 0

