DELTA 2 R/B(1)          
1 20453U 90008B   26022.53082910  .00066916  00000+0  94577-3 0  9993
2 20453  35.6056 116.3177 0100743 191.4690 168.3744 15.49562385918955
COSMOS 2058             
1 20465U 90010A   26022.22884133  .00005440  00000+0  32475-3 0  9996
2 20465  82.4660  93.1968 0011182 128.3358 231.8878 15.10885520935227
SL-14 R/B               
1 20466U 90010B   26022.28300043  .00000904  00000+0  10658-3 0  9995
2 20466  82.5046 310.9739 0021413  92.4752 267.8915 14.83519343921604
SL-14 R/B               
1 20511U 90018B   26022.39105671  .00000765  00000+0  93143-4 0  9992
2 20511  82.5204 266.3732 0015028 242.3750 117.5939 14.82094965915727
HST                     
1 20580U 90037B   26022.21199641  .00010127  00000+0  34472-3 0  9992
2 20580  28.4682 356.8795 0001648 319.5889  40.4584 15.28679599766197
SL-16 R/B               
1 20625U 90046B   26022.46468212 -.00000137  00000+0 -46199-4 0  9994
2 20625  70.9994  34.9929 0013895   4.1270 355.9965 14.15007922841850
COSMOS 2084             
1 20663U 90055A   26022.49270513  .00004399  00000+0  31778-3 0  9992
2 20663  62.7908 133.1037 0024723 181.0341 179.0713 15.05323300929364
SL-6 R/B(2)             
1 20666U 90055D   26022.47953490  .00003890  00000+0  29880-3 0  9991
2 20666  62.7836  50.9636 0018070 332.1988  27.8143 15.03313022931247
SL-8 R/B                
1 20775U 90078B   26022.25085229  .00020122  00000+0  60406-3 0  9995
2 20775  82.9052 293.0172 0368366 169.5845 191.3288 14.87405923802390
SL-8 R/B                
1 21088U 91006B   26022.49355528  .00000013  00000+0 -21423-5 0  9999
2 21088  82.9410 204.3966 0022824 161.7883 227.2933 13.77491892757713
OKEAN-3                 
1 21397U 91039A   26022.45881226  .00004651  00000+0  33026-3 0  9994
2 21397  82.5155  21.6178 0015910 122.9462 237.3297 15.04409382858085
COSMOS 2151             
1 21422U 91042A   26022.45466867  .00003426  00000+0  27385-3 0  9997
2 21422  82.4986 128.2656 0011955 209.8905 150.1637 14.99896347856264
